NORAD_CAT_ID,OBJECT_NAME,OBJECT_TYPE,EPOCH,MEAN_MOTION,ECCENTRICITY,INCLINATION,RA_OF_ASC_NODE,ARG_OF_PERICENTER,MEAN_ANOMALY,BSTAR,MEAN_MOTION_DOT,MEAN_MOTION_DDOT,TLE_LINE0,TLE_LINE1,TLE_LINE2,SEMIMAJOR_AXIS,PERIOD,APOGEE,PERIGEE,DECAYED
51152.0,STARLINK-3364,PAYLOAD,2022-07-15 15:44:58,15.08830219,0.0002349,53.2161,173.3361,46.9132,313.2056,1.7209e-05,-1.5e-07,0.0,0 STARLINK-3364,1 51152U 22005BA  22196.65623470 -.00000015  00000-0  17209-4 0  9996,2 51152  53.2161 173.3361 0002349  46.9132 313.2056 15.08830219 28468,6917.91,95.438,541.4,538.15,0.0
51152.0,STARLINK-3364,PAYLOAD,2022-07-16 07:38:49,15.08838199,0.0002394,53.2162,170.3626,47.8209,312.2986,5.4478e-05,5.79e-06,0.0,0 STARLINK-3364,1 51152U 22005BA  22197.31863154  .00000579  00000-0  54478-4 0  9998,2 51152  53.2162 170.3626 0002394  47.8209 312.2986 15.08838199 28562,6917.886,95.438,541.4069999999998,538.095,0.0
51152.0,STARLINK-3364,PAYLOAD,2022-07-16 15:35:45,15.08845083,0.0002414,53.2162,168.87599999999995,48.1432,311.9766,3.7473e-05,3.08e-06,0.0,0 STARLINK-3364,1 51152U 22005BA  22197.64982773  .00000308  00000-0  37473-4 0  9999,2 51152  53.2162 168.8760 0002414  48.1432 311.9766 15.08845083 27503,6917.865,95.437,541.4,538.06,0.0
51152.0,STARLINK-3364,PAYLOAD,2022-07-17 04:18:49,15.08844479,0.0002423,53.2161,166.4968,49.3384,310.7819,0.00016317,2.31e-05,0.0,0 STARLINK-3364,1 51152U 22005BA  22198.17974304  .00002310  00000-0  16317-3 0  9997,2 51152  53.2161 166.4968 0002423  49.3384 310.7819 15.08844479 28690,6917.8669999999975,95.437,541.408,538.055,0.0
51152.0,STARLINK-3364,PAYLOAD,2022-07-17 09:04:59,15.0883467,0.0002468,53.216,165.6047,48.8443,311.2762,7.7366e-05,9.43e-06,0.0,0 STARLINK-3364,1 51152U 22005BA  22198.37847219  .00000943  00000-0  77366-4 0  9995,2 51152  53.2160 165.6047 0002468  48.8443 311.2762 15.08834670 28726,6917.897,95.438,541.469,538.054,0.0
51152.0,STARLINK-3364,PAYLOAD,2022-07-17 15:26:32,15.08835151,0.0002449,53.2163,164.415,49.4335,310.687,9.8552e-05,1.28e-05,0.0,0 STARLINK-3364,1 51152U 22005BA  22198.64343227  .00001280  00000-0  98552-4 0  9990,2 51152  53.2163 164.4150 0002449  49.4335 310.6870 15.08835151 27656,6917.895,95.438,541.4540000000002,538.066,0.0
51152.0,STARLINK-3364,PAYLOAD,2022-07-18 04:09:37,15.08843383,0.0002434,53.2164,162.0352,52.8156,307.3058,0.0001233,1.675e-05,0.0,0 STARLINK-3364,1 51152U 22005BA  22199.17334723  .00001675  00000-0  12330-3 0  9997,2 51152  53.2164 162.0352 0002434  52.8156 307.3058 15.08843383 28847,6917.87,95.437,541.419,538.0509999999998,0.0
51152.0,STARLINK-3364,PAYLOAD,2022-07-18 07:20:24,15.08832504,0.0002362,53.2162,161.4417,52.9452,307.1756,-1.5373e-06,-3.13e-06,0.0,0 STARLINK-3364,1 51152U 22005BA  22199.30583806 -.00000313  00000-0 -15373-5 0  9992,2 51152  53.2162 161.4417 0002362  52.9452 307.1756 15.08832504 28868,6917.903,95.438,541.4019999999998,538.134,0.0
51152.0,STARLINK-3364,PAYLOAD,2022-07-19 02:25:01,15.0884103,0.0002343,53.2161,157.8733,53.0042,307.1164,1.1124e-05,-1.11e-06,0.0,0 STARLINK-3364,1 51152U 22005BA  22200.10071481 -.00000111  00000-0  11124-4 0  9998,2 51152  53.2161 157.8733 0002343  53.0042 307.1164 15.08841030 28983,6917.877,95.437,541.363,538.121,0.0
51152.0,STARLINK-3364,PAYLOAD,2022-07-19 07:11:10,15.088456900000002,0.0002391,53.2162,156.9814,52.1592,307.9616,3.0404e-05,1.96e-06,0.0,0 STARLINK-3364,1 51152U 22005BA  22200.29943109  .00000196  00000-0  30404-4 0  9997,2 51152  53.2162 156.9814 0002391  52.1592 307.9616 15.08845690 27904,6917.863,95.437,541.382,538.0740000000002,0.0
51152.0,STARLINK-3364,PAYLOAD,2022-07-19 21:29:39,15.08835921,0.0002367,53.2165,154.3044,53.6543,306.4667,6.9755e-05,8.22e-06,0.0,0 STARLINK-3364,1 51152U 22005BA  22200.89559884  .00000822  00000-0  69755-4 0  9993,2 51152  53.2165 154.3044 0002367  53.6543 306.4667 15.08835921 27994,6917.893,95.438,541.395,538.12,0.0
51152.0,STARLINK-3364,PAYLOAD,2022-07-20 03:51:12,15.0883382,0.0002394,53.2167,153.1153,52.0393,308.0815,6.9451e-06,-1.78e-06,0.0,0 STARLINK-3364,1 51152U 22005BA  22201.16056258 -.00000178  00000-0  69451-5 0  9990,2 51152  53.2167 153.1153 0002394  52.0393 308.0815 15.08833820 29148,6917.899,95.438,541.42,538.1080000000002,0.0
51152.0,STARLINK-3364,PAYLOAD,2022-07-20 13:23:31,15.08834913,0.0002305,53.2165,151.3318,53.5658,306.5546,0.00012551,1.7100000000000002e-05,0.0,0 STARLINK-3364,1 51152U 22005BA  22201.55800081  .00001710  00000-0  12551-3 0  9993,2 51152  53.2165 151.3318 0002305  53.5658 306.5546 15.08834913 28092,6917.896,95.438,541.356,538.1659999999998,0.0
51152.0,STARLINK-3364,PAYLOAD,2022-07-20 19:45:03,15.08837431,0.0002408,53.2168,150.1415,51.8167,308.3042,0.00014671,2.047e-05,0.0,0 STARLINK-3364,1 51152U 22005BA  22201.82296002  .00002047  00000-0  14671-3 0  9994,2 51152  53.2168 150.1415 0002408  51.8167 308.3042 15.08837431 28134,6917.888000000001,95.438,541.419,538.087,0.0
51152.0,STARLINK-3364,PAYLOAD,2022-07-21 05:17:22,15.08836076,0.0002351,53.2165,148.3572,51.4421,308.6781,2.5241e-05,1.13e-06,0.0,0 STARLINK-3364,1 51152U 22005BA  22202.22040428  .00000113  00000-0  25241-4 0  9996,2 51152  53.2165 148.3572 0002351  51.4421 308.6781 15.08836076 29307,6917.892,95.438,541.384,538.131,0.0
51152.0,STARLINK-3364,PAYLOAD,2022-07-21 06:52:46,15.08833746,0.0002334999999999,53.2163,148.0599,50.8102,309.3097,-1.5562e-06,-3.13e-06,0.0,0 STARLINK-3364,1 51152U 22005BA  22202.28664641 -.00000313  00000-0 -15562-5 0  9991,2 51152  53.2163 148.0599 0002335  50.8102 309.3097 15.08833746 28209,6917.9,95.438,541.38,538.149,0.0
51152.0,STARLINK-3364,PAYLOAD,2022-07-22 00:22:01,15.08822088,0.0002366,53.2168,144.7889,51.3499,308.7704,1.579e-05,-3.7e-07,0.0,0 STARLINK-3364,1 51152U 22005BA  22203.01529809 -.00000037  00000-0  15790-4 0  9993,2 51152  53.2168 144.7889 0002366  51.3499 308.7704 15.08822088 29428,6917.935,95.439,541.437,538.163,0.0
51152.0,STARLINK-3364,PAYLOAD,2022-07-22 05:08:11,15.08826373,0.0002393,53.2166,143.8969,50.5921,309.5283,3.4856e-05,2.66e-06,0.0,0 STARLINK-3364,1 51152U 22005BA  22203.21401729  .00000266  00000-0  34856-4 0  9992,2 51152  53.2166 143.8969 0002393  50.5921 309.5283 15.08826373 28348,6917.922,95.438,541.443,538.132,0.0
51152.0,STARLINK-3364,PAYLOAD,2022-07-23 04:58:57,15.08832205,0.0002299999999999,53.2171,139.4363,56.2343,303.8869,0.00026615,3.949e-05,0.0,0 STARLINK-3364,1 51152U 22005BA  22204.20761128  .00003949  00000-0  26615-3 0  9998,2 51152  53.2171 139.4363 0002300  56.2343 303.8869 15.08832205 29600,6917.904,95.438,541.36,538.178,0.0
51152.0,STARLINK-3364,PAYLOAD,2022-07-23 12:55:52,15.08844195,0.0002364,53.2172,137.9496,53.0121,307.1087,0.00015997,2.259e-05,0.0,0 STARLINK-3364,1 51152U 22005BA  22204.53880574  .00002259  00000-0  15997-3 0  9995,2 51152  53.2172 137.9496 0002364  53.0121 307.1087 15.08844195 29655,6917.868,95.437,541.368,538.097,0.0
51152.0,STARLINK-3364,PAYLOAD,2022-07-23 19:17:25,15.08838093,0.0002288,53.2171,136.7609,54.1759,305.9446,0.0001706999999999,2.429e-05,0.0,0 STARLINK-3364,1 51152U 22005BA  22204.80377009  .00002429  00000-0  17070-3 0  9992,2 51152  53.2171 136.7609 0002288  54.1759 305.9446 15.08838093 28587,6917.886,95.438,541.3340000000002,538.168,0.0
51152.0,STARLINK-3364,PAYLOAD,2022-07-24 03:14:21,15.08839869,0.0002254,53.217,135.274,54.3253,305.7948,0.0001561999999999,2.199e-05,0.0,0 STARLINK-3364,1 51152U 22005BA  22205.13497078  .00002199  00000-0  15620-3 0  9991,2 51152  53.2170 135.2740 0002254  54.3253 305.7948 15.08839869 29746,6917.880999999999,95.438,541.305,538.186,0.0
51152.0,STARLINK-3364,PAYLOAD,2022-07-24 12:46:39,15.08847855,0.0002266999999999,53.2171,133.4898,54.9669,305.1535,0.00018353,2.634e-05,0.0,0 STARLINK-3364,1 51152U 22005BA  22205.53240479  .00002634  00000-0  18353-3 0  9996,2 51152  53.2171 133.4898 0002267  54.9669 305.1535 15.08847855 29809,6917.856,95.437,541.29,538.153,0.0
51152.0,STARLINK-3364,PAYLOAD,2022-07-25 03:05:09,15.08832045,0.0002193,53.2171,130.8137,53.9654,306.1541,-9.8942e-05,-1.862e-05,0.0,0 STARLINK-3364,1 51152U 22005BA  22206.12857947 -.00001862  00000-0 -98942-4 0  9993,2 51152  53.2171 130.8137 0002193  53.9654 306.1541 15.08832045 29899,6917.905,95.438,541.2869999999998,538.253,0.0
51152.0,STARLINK-3364,PAYLOAD,2022-07-25 06:15:55,15.08831892,0.0002241,53.2173,130.2192,52.2237,307.8958,-0.0001049,-1.957e-05,0.0,0 STARLINK-3364,1 51152U 22005BA  22206.26105978 -.00001957  00000-0 -10490-3 0  9994,2 51152  53.2173 130.2192 0002241  52.2237 307.8958 15.08831892 28808,6917.905,95.438,541.32,538.22,0.0
51152.0,STARLINK-3364,PAYLOAD,2022-07-25 18:59:00,15.08830361,0.0002189,53.217,127.84,52.8509,307.2683,-2.4776e-05,-6.82e-06,0.0,0 STARLINK-3364,1 51152U 22005BA  22206.79097955 -.00000682  00000-0 -24776-4 0  9994,2 51152  53.2170 127.8400 0002189  52.8509 307.2683 15.08830361 28885,6917.91,95.438,541.289,538.261,0.0
51152.0,STARLINK-3364,PAYLOAD,2022-07-26 01:20:33,15.08833129,0.0002157,53.2172,126.6509,52.0411,308.0776,-2.8052e-06,-3.33e-06,0.0,0 STARLINK-3364,1 51152U 22005BA  22207.05593787 -.00000333  00000-0 -28052-5 0  9993,2 51152  53.2172 126.6509 0002157  52.0411 308.0776 15.08833129 30030,6917.901,95.438,541.259,538.274,0.0
51152.0,STARLINK-3364,PAYLOAD,2022-07-26 04:31:19,15.08835713,0.0002195,53.2172,126.0559,54.9111,305.2087,-9.1612e-06,-4.34e-06,0.0,0 STARLINK-3364,1 51152U 22005BA  22207.18841675 -.00000434  00000-0 -91612-5 0  9993,2 51152  53.2172 126.0559 0002195  54.9111 305.2087 15.08835713 28941,6917.893,95.438,541.2769999999998,538.24,0.0
51152.0,STARLINK-3364,PAYLOAD,2022-07-26 18:49:46,15.08877344,0.0002089,53.2169,123.3792,45.5836,314.5327,-0.00050477,-8.321e-05,0.0,0 STARLINK-3364,1 51152U 22005BA  22207.78456416 -.00008321  00000-0 -50477-3 0  9999,2 51152  53.2169 123.3792 0002089  45.5836 314.5327 15.08877344 29035,6917.766,95.435,541.076,538.186,0.0
